NORAD_CAT_ID,OBJECT_NAME,OBJECT_TYPE,EPOCH,MEAN_MOTION,ECCENTRICITY,INCLINATION,RA_OF_ASC_NODE,ARG_OF_PERICENTER,MEAN_ANOMALY,BSTAR,MEAN_MOTION_DOT,MEAN_MOTION_DDOT,TLE_LINE0,TLE_LINE1,TLE_LINE2,SEMIMAJOR_AXIS,PERIOD,APOGEE,PERIGEE,DECAYED
51113.0,STARLINK-3372,PAYLOAD,2022-05-03 22:00:00,15.28036895,0.0001736,53.2162,120.9701,15.7133,80.5402,-0.019858,-0.00514158,0.0,0 STARLINK-3372,1 51113U 22005K   22123.91667824 -.00514158  00000-0 -19858-1 0  9991,2 51113  53.2162 120.9701 0001736  15.7133  80.5402 15.28036895 17744,6859.818,94.239,482.874,480.492,0.0
51113.0,STARLINK-3372,PAYLOAD,2022-05-04 06:00:02,15.27545288,0.000174,53.2164,119.4274,37.0629,93.7826,-0.018996,-0.00486307,0.0,0 STARLINK-3372,1 51113U 22005K   22124.25002315 -.00486307  00000-0 -18996-1 0  9993,2 51113  53.2164 119.4274 0001740  37.0629  93.7826 15.27545288 17809,6861.29,94.269,484.349,481.961,0.0
51113.0,STARLINK-3372,PAYLOAD,2022-05-04 12:00:00,15.27331708,0.0001645,53.2171,118.2645,42.573,23.6441,-0.025555,-0.00644568,0.0,0 STARLINK-3372,1 51113U 22005K   22124.50001157 -.00644568  00000-0 -25555-1 0  9998,2 51113  53.2171 118.2645 0001645  42.5730  23.6441 15.27331708 17832,6861.93,94.282,484.923,482.666,0.0
51113.0,STARLINK-3372,PAYLOAD,2022-05-04 14:00:01,15.27124244,0.0001709,53.2157,117.8835,42.1424,122.5549,-0.020242,-0.00509946,0.0,0 STARLINK-3372,1 51113U 22005K   22124.58334491 -.00509946  00000-0 -20242-1 0  9994,2 51113  53.2157 117.8835 0001709  42.1424 122.5549 15.27124244  3635,6862.551,94.295,485.589,483.24300000000005,0.0
51113.0,STARLINK-3372,PAYLOAD,2022-05-04 22:00:01,15.26762199,0.0001705,53.2172,116.3342,47.4082,150.7114,-0.026079,-0.00646324,0.0,0 STARLINK-3372,1 51113U 22005K   22124.91668981 -.00646324  00000-0 -26079-1 0  9991,2 51113  53.2172 116.3342 0001705  47.4082 150.7114 15.26762199  3685,6863.636,94.317,486.671,484.331,0.0
51113.0,STARLINK-3372,PAYLOAD,2022-05-05 14:00:01,15.25784614,0.0001559,53.2159,113.2588,45.7454,217.4989,-0.022733,-0.00552818,0.0,0 STARLINK-3372,1 51113U 22005K   22125.58334491 -.00552818  00000-0 -22733-1 0  9998,2 51113  53.2159 113.2588 0001559  45.7454 217.4989 15.25784614 18007,6866.566999999999,94.378,489.503,487.362,0.0
51113.0,STARLINK-3372,PAYLOAD,2022-05-05 22:00:00,15.25271316,0.0001828,53.2162,111.7184,46.4111,248.6234,-0.01962,-0.00469798,0.0,0 STARLINK-3372,1 51113U 22005K   22125.91667824 -.00469798  00000-0 -19620-1 0  9999,2 51113  53.2162 111.7184 0001828  46.4111 248.6234 15.25271316 18057,6868.108,94.409,491.228,488.717,0.0
51113.0,STARLINK-3372,PAYLOAD,2022-05-06 06:00:00,15.24938507,0.0001754999999999,53.2174,110.1783,42.5801,283.6039,-0.027488,-0.00644735,0.0,0 STARLINK-3372,1 51113U 22005K   22126.25001157 -.00644735  00000-0 -27488-1 0  9995,2 51113  53.2174 110.1783 0001755  42.5801 283.6039 15.24938507 18109,6869.107,94.43,492.17800000000005,489.767,0.0
51113.0,STARLINK-3372,PAYLOAD,2022-05-06 14:00:01,15.24436672,0.000155,53.2161,108.6437,43.0373,313.8304,-0.024886,-0.00579298,0.0,0 STARLINK-3372,1 51113U 22005K   22126.58334491 -.00579298  00000-0 -24886-1 0  9991,2 51113  53.2161 108.6437 0001550  43.0373 313.8304 15.24436672  3624,6870.615,94.461,493.544,491.415,0.0
51113.0,STARLINK-3372,PAYLOAD,2022-05-07 06:00:02,15.23573143,0.0001806,53.2175,105.5712,37.578,19.0157,-0.028787,-0.00647858,0.0,0 STARLINK-3372,1 51113U 22005K   22127.25002315 -.00647858  00000-0 -28787-1 0  9995,2 51113  53.2175 105.5712 0001806  37.5780  19.0157 15.23573143 18255,6873.21,94.515,496.317,493.834,0.0
51113.0,STARLINK-3372,PAYLOAD,2022-05-07 14:00:01,15.23115538,0.00015,53.2173,104.0368,49.6519,35.8998,-0.029019,-0.00644437,0.0,0 STARLINK-3372,1 51113U 22005K   22127.58334491 -.00644437  00000-0 -29019-1 0  9993,2 51113  53.2173 104.0368 0001500  49.6519  35.8998 15.23115538  3656,6874.587,94.543,497.483,495.421,0.0
51113.0,STARLINK-3372,PAYLOAD,2022-05-07 22:00:00,15.22659619,0.0001728,53.2176,102.5032,42.2591,71.7659,-0.029367,-0.00643469,0.0,0 STARLINK-3372,1 51113U 22005K   22127.91667824 -.00643469  00000-0 -29367-1 0  9999,2 51113  53.2176 102.5032 0001728  42.2591  71.7659 15.22659619  3645,6875.959,94.571,499.012,496.636,0.0
51113.0,STARLINK-3372,PAYLOAD,2022-05-08 14:00:01,15.21748678,0.0001602,53.2173,99.4423,52.806,116.5214,-0.030236,-0.0064473999999999,0.0,0 STARLINK-3372,1 51113U 22005K   22128.58334491 -.00644740  00000-0 -30236-1 0  9994,2 51113  53.2173  99.4423 0001602  52.8060 116.5214 15.21748678 18463,6878.703,94.628,501.67,499.466,0.0
51113.0,STARLINK-3372,PAYLOAD,2022-05-08 22:00:00,15.21292941,0.0001767,53.2175,97.9123,46.1207,150.0368,-0.0306,-0.00643861,0.0,0 STARLINK-3372,1 51113U 22005K   22128.91667824 -.00643861  00000-0 -30600-1 0  9998,2 51113  53.2175  97.9123 0001767  46.1207 150.0368 15.21292941  3651,6880.0769999999975,94.656,503.157,500.726,0.0
51113.0,STARLINK-3372,PAYLOAD,2022-05-09 14:00:01,15.20382423,0.0001499,53.2173,94.8574,60.8534,187.3844,-0.03157,-0.00646482,0.0,0 STARLINK-3372,1 51113U 22005K   22129.58335648 -.00646482  00000-0 -31570-1 0  9997,2 51113  53.2173  94.8574 0001499  60.8534 187.3844 15.20382423 18611,6882.823,94.713,505.72,503.656,0.0
51113.0,STARLINK-3372,PAYLOAD,2022-05-09 22:00:00,15.19925326,0.0001643,53.2175,93.3307,49.8815,223.4807,-0.031805,-0.00642911,0.0,0 STARLINK-3372,1 51113U 22005K   22129.91667824 -.00642911  00000-0 -31805-1 0  9992,2 51113  53.2175  93.3307 0001643  49.8815 223.4807 15.19925326  3642,6884.203,94.741,507.199,504.937,0.0
51113.0,STARLINK-3372,PAYLOAD,2022-05-10 14:00:01,15.19015301,0.0001436,53.2174,90.2822,56.1973,265.8962,-0.032874,-0.00646782,0.0,0 STARLINK-3372,1 51113U 22005K   22130.58334491 -.00646782  00000-0 -32874-1 0  9995,2 51113  53.2174  90.2822 0001436  56.1973 265.8962 15.19015301  3640,6886.9519999999975,94.798,509.806,507.828,0.0
51113.0,STARLINK-3372,PAYLOAD,2022-05-10 20:29:01,15.19703088,0.0003502,53.2092,89.0728,76.3298,283.8089,-0.012569,-0.00262573,0.0,0 STARLINK-3372,1 51113U 22005K   22130.85348706 -.00262573  00000-0 -12569-1 0  9990,2 51113  53.2092  89.0728 0003502  76.3298 283.8089 15.19703088 18800,6884.874,94.755,509.15,504.328,0.0
51113.0,STARLINK-3372,PAYLOAD,2022-05-11 22:00:00,15.17190474,0.0001558,53.2176,84.1967,47.1301,5.8562,-0.034417,-0.00649469,0.0,0 STARLINK-3372,1 51113U 22005K   22131.91667824 -.00649469  00000-0 -34417-1 0  9992,2 51113  53.2176  84.1967 0001558  47.1301   5.8562 15.17190474 18966,6892.473000000001,94.912,515.4119999999998,513.265,0.0
51113.0,STARLINK-3372,PAYLOAD,2022-05-12 14:00:01,15.16279232,0.000151,53.2174,81.1605,50.8135,44.3333,-0.035386,-0.00650437,0.0,0 STARLINK-3372,1 51113U 22005K   22132.58334491 -.00650437  00000-0 -35386-1 0  9990,2 51113  53.2174  81.1605 0001510  50.8135  44.3333 15.16279232  1307,6895.235,94.969,518.141,516.058,0.0
51113.0,STARLINK-3372,PAYLOAD,2022-05-12 22:00:00,15.15823114,0.0001724,53.2175,79.6438,44.7865,70.6193,-0.035793,-0.00649472,0.0,0 STARLINK-3372,1 51113U 22005K   22132.91667824 -.00649472  00000-0 -35793-1 0  9995,2 51113  53.2175  79.6438 0001724  44.7865  70.6193 15.15823114  1302,6896.618,94.998,519.672,517.294,0.0
51113.0,STARLINK-3372,PAYLOAD,2022-05-13 06:00:00,15.15366053,0.0001616,53.2175,78.13,52.7224,82.3943,-0.036163,-0.00647781,0.0,0 STARLINK-3372,1 51113U 22005K   22133.25001157 -.00647781  00000-0 -36163-1 0  9997,2 51113  53.2175  78.1300 0001616  52.7224  82.3943 15.15366053 19173,6898.004,95.027,520.984,518.755,0.0
51113.0,STARLINK-3372,PAYLOAD,2022-05-13 14:00:01,15.14911637,0.0001555,53.2174,76.6139,54.4084,99.8722,-0.03673,-0.00649372,0.0,0 STARLINK-3372,1 51113U 22005K   22133.58334491 -.00649372  00000-0 -36730-1 0  9991,2 51113  53.2174  76.6139 0001555  54.4084  99.8722 15.14911637  1307,6899.384,95.055,522.322,520.1759999999998,0.0
51113.0,STARLINK-3372,PAYLOAD,2022-05-13 22:00:00,15.14455686,0.0001605,53.2176,75.1006,57.1559,115.7408,-0.037189,-0.00649055,0.0,0 STARLINK-3372,1 51113U 22005K   22133.91667824 -.00649055  00000-0 -37189-1 0  9994,2 51113  53.2176  75.1006 0001605  57.1559 115.7408 15.14455686  1305,6900.769,95.084,523.741,521.526,0.0
51113.0,STARLINK-3372,PAYLOAD,2022-05-14 14:00:01,15.135443,0.0001597,53.2174,72.0769,55.8973,152.5888,-0.038146,-0.00648826,0.0,0 STARLINK-3372,1 51113U 22005K   22134.58334491 -.00648826  00000-0 -38146-1 0  9998,2 51113  53.2174  72.0769 0001597  55.8973 152.5888 15.13544300 19378,6903.538000000001,95.141,526.506,524.3009999999998,0.0
51113.0,STARLINK-3372,PAYLOAD,2022-05-14 22:00:00,15.13088341,0.0001701,53.2175,70.567,51.7494,173.7099,-0.038628,-0.00648657,0.0,0 STARLINK-3372,1 51113U 22005K   22134.91667824 -.00648657  00000-0 -38628-1 0  9991,2 51113  53.2175  70.5670 0001701  51.7494 173.7099 15.13088341  1304,6904.925,95.17,527.965,525.616,0.0
51113.0,STARLINK-3372,PAYLOAD,2022-05-15 14:00:01,15.1217689,0.0001463,53.2174,67.5494,62.92100000000001,194.9052,-0.039615,-0.00648417,0.0,0 STARLINK-3372,1 51113U 22005K   22135.58335648 -.00648417  00000-0 -39615-1 0  9992,2 51113  53.2174  67.5494 0001463  62.9210 194.9052 15.12176890 19521,6907.7,95.227,530.575,528.554,0.0
51113.0,STARLINK-3372,PAYLOAD,2022-05-15 22:00:00,15.11721264,0.0001668,53.2174,66.0428,50.6206,222.4727,-0.040142,-0.00648721,0.0,0 STARLINK-3372,1 51113U 22005K   22135.91667824 -.00648721  00000-0 -40142-1 0  9998,2 51113  53.2174  66.0428 0001668  50.6206 222.4727 15.11721264  1301,6909.0880000000025,95.256,532.105,529.8,0.0
51113.0,STARLINK-3372,PAYLOAD,2022-05-16 14:00:01,15.10809118,0.0001492,53.2174,63.0315,54.374,247.7381,-0.041093,-0.00647485,0.0,0 STARLINK-3372,1 51113U 22005K   22136.58334491 -.00647485  00000-0 -41093-1 0  9995,2 51113  53.2174  63.0315 0001492  54.3740 247.7381 15.10809118  1302,6911.868,95.313,534.764,532.702,0.0
